OBJECT_NAME,OBJECT_ID,EPOCH,MEAN_MOTION,ECCENTRICITY,INCLINATION,RA_OF_ASC_NODE,ARG_OF_PERICENTER,MEAN_ANOMALY,EPHEMERIS_TYPE,CLASSIFICATION_TYPE,NORAD_CAT_ID,ELEMENT_SET_NO,REV_AT_EPOCH,BSTAR,MEAN_MOTION_DOT,MEAN_MOTION_DDOT
INTELSAT 902 (IS-902),2001-039A,2026-06-05T04:43:25.382784,1.00271322,.00042632,6.0882,71.9274,0.2969,202.1539,0,U,26900,999,9057,0,-.272E-5,0
INTELSAT 904 (IS-904),2002-007A,2026-06-05T06:01:34.581216,1.00270624,.00072304,6.8900,69.3272,359.5843,243.6787,0,U,27380,999,5164,0,-.215E-5,0
DIRECTV 5 (TEMPO 1),2002-023A,2026-06-05T05:41:14.252928,1.00271836,.00035018,4.8469,75.4583,6.1021,147.3199,0,U,27426,999,8800,0,-.46E-6,0
INTELSAT 905 (IS-905),2002-027A,2026-06-05T07:09:12.977568,1.00272499,.00041975,6.7233,69.9427,12.4504,141.4304,0,U,27438,999,5124,0,.105E-5,0
GALAXY 3C (G-3C),2002-030A,2026-06-04T14:34:22.163808,1.00271868,.00019479,3.6981,78.1438,28.6349,270.0137,0,U,27445,999,4636,0,-.141E-5,0
INTELSAT 906 (IS-906),2002-041A,2026-06-04T22:57:21.695040,1.00270467,.00046747,5.7729,73.0696,356.6746,232.1342,0,U,27513,999,8690,0,.24E-6,0
GALAXY 13 (HORIZONS-1),2003-044A,2026-06-05T07:36:33.191712,1.00271884,.00020666,1.3896,84.0005,343.5964,150.2709,0,U,27954,999,4645,0,.145E-5,0
INTELSAT 10-02,2004-022A,2026-06-05T06:40:04.244160,1.00268681,.00000755,0.0116,323.8027,24.1816,4.7423,0,U,28358,999,8043,0,.1E-7,0
DIRECTV 8,2005-019A,2026-06-05T06:06:26.373024,1.00271263,.00031021,0.0152,350.1253,88.2145,147.9161,0,U,28659,999,7695,0,.13E-6,0
GALAXY 28 (G-28),2005-022A,2026-06-05T05:38:29.182272,1.00271306,.00030736,3.2675,79.0765,355.6081,236.5096,0,U,28702,999,5185,0,-.188E-5,0
GALAXY 16 (G-16),2006-023A,2026-06-05T03:45:07.583328,1.00269008,.00028332,0.0086,184.7291,251.9959,134.1481,0,U,29236,999,7285,0,-.114E-5,0
DIRECTV 9S,2006-043A,2026-06-05T06:11:33.383328,1.00271942,.00051741,2.3896,81.0447,4.0075,160.3454,0,U,29494,999,5126,0,-.101E-5,0
GALAXY 17 (G-17),2007-016B,2026-06-05T05:34:57.032256,1.00272989,.00049383,2.9415,80.0511,11.7836,160.5764,0,U,31307,999,6968,0,-.194E-5,0
INTELSAT 11 (IS-11),2007-044B,2026-06-05T04:05:59.881344,0.99053681,.00016843,3.5338,78.8143,75.5225,339.3653,0,U,32253,999,6833,0,-.154E-5,0
HORIZONS-2,2007-063B,2026-06-05T06:19:21.229824,1.00273453,.00041793,2.5710,80.7714,352.3843,201.6045,0,U,32388,999,6769,0,-.242E-5,0
DIRECTV 11,2008-013A,2026-06-04T21:38:42.269568,1.00270355,.00005747,0.0153,150.9196,236.0221,91.8989,0,U,32729,999,4547,0,-.113E-5,0
GALAXY 18 (G-18),2008-024A,2026-06-05T16:21:16.543872,1.00271843,.0003287,0.0152,49.1250,35.9341,291.3629,0,U,32951,999,4573,0,.38E-6,0
INTELSAT 25 (IS-25),2008-034A,2026-06-05T15:14:59.100864,0.99015529,.0001747,2.6783,80.4476,15.6696,199.9005,0,U,33153,999,6557,0,-.187E-5,0
GALAXY 19 (G-19),2008-045A,2026-06-05T14:45:55.221408,1.00270533,.0003471,0.0134,29.8807,61.0408,287.6009,0,U,33376,999,6478,0,-.126E-5,0
FM-5,2009-034A,2026-06-04T21:42:26.911296,1.00272535,.00004069,0.0114,298.9217,18.7070,175.1655,0,U,35493,999,4652,0,-.188E-5,0
INTELSAT 14 (IS-14),2009-064A,2026-06-05T09:52:49.965888,1.00272433,.0002902,0.0128,315.6608,133.3187,268.0859,0,U,36097,999,6048,0,-.261E-5,0
INTELSAT 15 (IS-15),2009-067A,2026-06-05T17:20:37.360896,1.00272339,.0002427,0.0148,323.4032,113.2547,162.8014,0,U,36106,999,4111,0,-.173E-5,0
DIRECTV 12,2009-075A,2026-06-04T14:38:50.775360,1.00273044,.00004871,0.0403,147.4672,266.6647,315.9192,0,U,36131,999,4642,0,-.92E-6,0
INTELSAT 16 (IS-16),2010-006A,2026-06-05T13:09:17.542080,1.00271795,.0002263,0.0164,33.8635,52.2579,289.0004,0,U,36397,999,5953,0,-.232E-5,0
XM-5,2010-053A,2026-06-04T09:35:36.621024,1.00272037,.00029236,0.0616,274.3576,276.0478,91.1514,0,U,37185,999,5735,0,-.11E-6,0
INTELSAT 17 (IS-17),2010-065B,2026-06-05T05:15:38.798784,1.00271921,.00024076,0.0069,291.7736,146.7314,320.0515,0,U,37238,999,5312,0,.11E-6,0
INTELSAT 28 (IS-28),2011-016A,2026-06-05T07:31:33.369024,1.00269914,.00040502,1.7750,82.7690,351.6822,260.5058,0,U,37392,999,5316,0,-.213E-5,0
INTELSAT 18 (IS-18),2011-056A,2026-06-05T05:25:38.860608,1.00271753,.00022362,0.0133,300.1072,146.3497,68.6183,0,U,37834,999,5369,0,.65E-6,0
INTELSAT 22 (IS-22),2012-011A,2026-06-05T05:15:38.798784,1.00273183,.00016057,0.0124,43.2010,18.6444,342.8064,0,U,38098,999,706,0,-.47E-6,0
INTELSAT 19 (IS-19),2012-030A,2026-06-05T04:02:22.727904,1.00272087,.00031886,0.0183,346.7603,94.0347,39.4115,0,U,38356,999,5033,0,-.44E-6,0
INTELSAT 20 (IS-20),2012-043A,2026-06-04T19:57:21.472992,1.00271341,.0001553,0.0098,81.5762,96.2799,83.2508,0,U,38740,999,5062,0,-.12E-6,0
