INTELSAT 902 (IS-902)   
1 26900U 01039A   26156.19682156 -.00000272  00000+0  00000+0 0  9998
2 26900   6.0882  71.9274 0004263   0.2969 202.1539  1.00271322 90575
INTELSAT 904 (IS-904)   
1 27380U 02007A   26156.25109469 -.00000215  00000+0  00000+0 0  9992
2 27380   6.8900  69.3272 0007230 359.5843 243.6787  1.00270624 51648
DIRECTV 5 (TEMPO 1)     
1 27426U 02023A   26156.23697052 -.00000046  00000+0  00000+0 0  9991
2 27426   4.8469  75.4583 0003501   6.1021 147.3199  1.00271836 88003
INTELSAT 905 (IS-905)   
1 27438U 02027A   26156.29806687  .00000105  00000+0  00000+0 0  9995
2 27438   6.7233  69.9427 0004197  12.4504 141.4304  1.00272499 51244
GALAXY 3C (G-3C)        
1 27445U 02030A   26155.60720097 -.00000141  00000+0  00000+0 0  9992
2 27445   3.6981  78.1438 0001947  28.6349 270.0137  1.00271868 46367
INTELSAT 906 (IS-906)   
1 27513U 02041A   26155.95650110  .00000024  00000+0  00000+0 0  9995
2 27513   5.7729  73.0696 0004674 356.6746 232.1342  1.00270467 86906
GALAXY 13 (HORIZONS-1)  
1 27954U 03044A   26156.31705083  .00000145  00000+0  00000+0 0  9993
2 27954   1.3896  84.0005 0002066 343.5964 150.2709  1.00271884 46455
INTELSAT 10-02          
1 28358U 04022A   26156.27782690  .00000001  00000+0  00000+0 0  9994
2 28358   0.0116 323.8027 0000075  24.1816   4.7423  1.00268681 80432
DIRECTV 8               
1 28659U 05019A   26156.25447191  .00000013  00000+0  00000+0 0  9990
2 28659   0.0152 350.1253 0003102  88.2145 147.9161  1.00271263 76951
GALAXY 28 (G-28)        
1 28702U 05022A   26156.23505998 -.00000188  00000+0  00000+0 0  9995
2 28702   3.2675  79.0765 0003073 355.6081 236.5096  1.00271306 51859
GALAXY 16 (G-16)        
1 29236U 06023A   26156.15633777 -.00000114  00000+0  00000+0 0  9997
2 29236   0.0086 184.7291 0002833 251.9959 134.1481  1.00269008 72856
DIRECTV 9S              
1 29494U 06043A   26156.25802527 -.00000101  00000+0  00000+0 0  9993
2 29494   2.3896  81.0447 0005174   4.0075 160.3454  1.00271942 51268
GALAXY 17 (G-17)        
1 31307U 07016B   26156.23260454 -.00000194  00000+0  00000+0 0  9997
2 31307   2.9415  80.0511 0004938  11.7836 160.5764  1.00272989 69688
INTELSAT 11 (IS-11)     
1 32253U 07044B   26156.17083196 -.00000154  00000+0  00000+0 0  9994
2 32253   3.5338  78.8143 0001684  75.5225 339.3653  0.99053681 68338
HORIZONS-2              
1 32388U 07063B   26156.26344016 -.00000242  00000+0  00000+0 0  9993
2 32388   2.5710  80.7714 0004179 352.3843 201.6045  1.00273453 67698
DIRECTV 11              
1 32729U 08013A   26155.90187812 -.00000113  00000+0  00000+0 0  9994
2 32729   0.0153 150.9196 0000574 236.0221  91.8989  1.00270355 45474
GALAXY 18 (G-18)        
1 32951U 08024A   26156.68144148  .00000038  00000+0  00000+0 0  9999
2 32951   0.0152  49.1250 0003287  35.9341 291.3629  1.00271843 45733
INTELSAT 25 (IS-25)     
1 33153U 08034A   26156.63540626 -.00000187  00000+0  00000+0 0  9997
2 33153   2.6783  80.4476 0001747  15.6696 199.9005  0.99015529 65570
GALAXY 19 (G-19)        
1 33376U 08045A   26156.61522247 -.00000126  00000+0  00000+0 0  9996
2 33376   0.0134  29.8807 0003471  61.0408 287.6009  1.00270533 64788
FM-5                    
1 35493U 09034A   26155.90447814 -.00000188  00000+0  00000+0 0  9992
2 35493   0.0114 298.9217 0000406  18.7070 175.1655  1.00272535 46525
INTELSAT 14 (IS-14)     
1 36097U 09064A   26156.41168942 -.00000261  00000+0  00000+0 0  9997
2 36097   0.0128 315.6608 0002902 133.3187 268.0859  1.00272433 60484
INTELSAT 15 (IS-15)     
1 36106U 09067A   26156.72265464 -.00000173  00000+0  00000+0 0  9994
2 36106   0.0148 323.4032 0002427 113.2547 162.8014  1.00272339 41112
DIRECTV 12              
1 36131U 09075A   26155.61030990 -.00000092  00000+0  00000+0 0  9992
2 36131   0.0403 147.4672 0000487 266.6647 315.9192  1.00273044 46427
INTELSAT 16 (IS-16)     
1 36397U 10006A   26156.54811970 -.00000232  00000+0  00000+0 0  9996
2 36397   0.0164  33.8635 0002263  52.2579 289.0004  1.00271795 59539
XM-5                    
1 37185U 10053A   26155.39972941 -.00000011  00000+0  00000+0 0  9997
2 37185   0.0616 274.3576 0002923 276.0478  91.1514  1.00272037 57356
INTELSAT 17 (IS-17)     
1 37238U 10065B   26156.21919906  .00000011  00000+0  00000+0 0  9992
2 37238   0.0069 291.7736 0002407 146.7314 320.0515  1.00271921 53124
INTELSAT 28 (IS-28)     
1 37392U 11016A   26156.31358066 -.00000213  00000+0  00000+0 0  9990
2 37392   1.7750  82.7690 0004050 351.6822 260.5058  1.00269914 53167
INTELSAT 18 (IS-18)     
1 37834U 11056A   26156.22614422  .00000065  00000+0  00000+0 0  9990
2 37834   0.0133 300.1072 0002236 146.3497  68.6183  1.00271753 53695
INTELSAT 22 (IS-22)     
1 38098U 12011A   26156.21919906 -.00000047  00000+0  00000+0 0  9990
2 38098   0.0124  43.2010 0001605  18.6444 342.8064  1.00273183  7061
INTELSAT 19 (IS-19)     
1 38356U 12030A   26156.16831861 -.00000044  00000+0  00000+0 0  9992
2 38356   0.0183 346.7603 0003188  94.0347  39.4115  1.00272087 50336
INTELSAT 20 (IS-20)     
1 38740U 12043A   26155.83149853 -.00000012  00000+0  00000+0 0  9994
2 38740   0.0098  81.5762 0001553  96.2799  83.2508  1.00271341 50624
